[{"OBJECT_NAME":"OBJECT A","OBJECT_ID":"2023-085A","EPOCH":"2026-03-09T21:42:39.504096","MEAN_MOTION":15.28003151,"ECCENTRICITY":0.00073195,"INCLINATION":97.4858,"RA_OF_ASC_NODE":178.2033,"ARG_OF_PERICENTER":32.2499,"MEAN_ANOMALY":327.9186,"EPHEMERIS_TYPE":0,"CLASSIFICATION_TYPE":"U","NORAD_CAT_ID":57004,"ELEMENT_SET_NO":999,"REV_AT_EPOCH":15139,"BSTAR":0.00063583858,"MEAN_MOTION_DOT":0.0001733,"MEAN_MOTION_DDOT":0},{"OBJECT_NAME":"STARLINK-36086","OBJECT_ID":"2025-288X","EPOCH":"2026-03-09T05:27:11.490048","MEAN_MOTION":15.27578563,"ECCENTRICITY":0.00015551,"INCLINATION":43.0008,"RA_OF_ASC_NODE":26.3238,"ARG_OF_PERICENTER":251.64,"MEAN_ANOMALY":108.4283,"EPHEMERIS_TYPE":0,"CLASSIFICATION_TYPE":"U","NORAD_CAT_ID":66980,"ELEMENT_SET_NO":999,"REV_AT_EPOCH":1521,"BSTAR":0.00059201614,"MEAN_MOTION_DOT":0.00016064,"MEAN_MOTION_DDOT":0}]
